     2.11           N: GPS NAV DATA                         RINEX VERSION / TYPE
teqc  2018Dec12     gpsops              20220624 01:04:03UTCPGM / RUN BY / DATE
Linux 2.6.32-573.12.1.x86_64|x86_64|gcc -static|Linux 64|=+ COMMENT
CHPI                                    MARKER NAME         COMMENT
41609M003                               MARKER NUMBER       COMMENT
4164613.9484 -4162456.9866 -2445028.7316                    COMMENT
This data is provided as a public service by NASA/JPL.      COMMENT
No warranty is expressed or implied regarding suitability   COMMENT
for use.  For further information, contact:                 COMMENT
ggnops at jpl dot nasa dot gov                              COMMENT
                                                            END OF HEADER
12 22  6 23  2  0  0.0-2.353289164603D-04-5.911715561524D-12 0.000000000000D+00
    4.000000000000D+01 7.762500000000D+01 4.451613999020D-09-9.946091357942D-01
    4.060566425323D-06 8.586217067204D-03 6.144866347313D-06 5.153780225754D+03
    3.528000000000D+05-8.754432201385D-08 8.097285362151D-02 1.844018697739D-07
    9.692399375338D-01 2.654687500000D+02 1.308539764905D+00-8.230342826815D-09
    1.607209803882D-11 1.000000000000D+00 2.215000000000D+03 0.000000000000D+00
    2.000000000000D+00 0.000000000000D+00-1.257285475731D-08 4.000000000000D+01
    3.456180000000D+05 4.000000000000D+00
 2 22  6 23  2  0  0.0-6.523965857923D-04 4.547473508865D-13 0.000000000000D+00
    6.000000000000D+01-5.640625000000D+01 4.265177661770D-09 4.581224327639D-01
   -3.069639205933D-06 2.039695216808D-02 9.130686521530D-06 5.153690004349D+03
    3.528000000000D+05-2.179294824600D-07 2.026325386163D+00-1.937150955200D-07
    9.659698314008D-01 2.072812500000D+02-1.412109484622D+00-8.351062140973D-09
    2.035799084918D-11 1.000000000000D+00 2.215000000000D+03 0.000000000000D+00
    2.000000000000D+00 0.000000000000D+00-1.769512891769D-08 6.000000000000D+01
    3.456180000000D+05 4.000000000000D+00
24 22  6 23  2  0  0.0 2.145478501916D-04-8.867573342286D-12 0.000000000000D+00
    1.500000000000D+01 8.937500000000D+00 5.240932591593D-09 6.140529895203D-01
    7.469207048416D-07 1.255866279826D-02 1.005269587040D-05 5.153686088562D+03
    3.528000000000D+05-1.024454832077D-07-1.117021578307D+00 1.396983861923D-07
    9.339653984934D-01 1.709375000000D+02 8.187748163890D-01-8.470709981929D-09
   -4.068026592493D-10 1.000000000000D+00 2.215000000000D+03 0.000000000000D+00
    2.000000000000D+00 0.000000000000D+00 2.793967723846D-09 1.500000000000D+01
    3.456180000000D+05 4.000000000000D+00
25 22  6 23  2  0  0.0 3.406601026654D-04 4.547473508865D-12 0.000000000000D+00
    5.200000000000D+01 7.928125000000D+01 4.596620039104D-09-1.271136340662D+00
    4.131346940994D-06 1.046237780247D-02 6.197020411491D-06 5.153659116745D+03
    3.528000000000D+05 2.067536115646D-07 2.739398952676D-03 1.844018697739D-07
    9.567301856410D-01 2.586562500000D+02 1.006267791207D+00-8.194269895661D-09
   -3.250135381184D-11 1.000000000000D+00 2.215000000000D+03 0.000000000000D+00
    2.000000000000D+00 0.000000000000D+00 5.587935447693D-09 5.200000000000D+01
    3.456180000000D+05 4.000000000000D+00
11 22  6 23  2  0  0.0-1.340545713902D-05 2.160049916711D-12 0.000000000000D+00
    2.110000000000D+02-5.009375000000D+01 4.184102856107D-09 2.502359536267D+00
   -2.637505531311D-06 4.838283639401D-04 9.246170520782D-06 5.153599721909D+03
    3.528000000000D+05-7.450580596924D-09 2.159078498766D+00 2.048909664154D-08
    9.631477541699D-01 1.960625000000D+02 2.822305956623D+00-7.956760002420D-09
    1.875078104529D-10 1.000000000000D+00 2.215000000000D+03 0.000000000000D+00
    2.000000000000D+00 0.000000000000D+00-8.381903171539D-09 7.230000000000D+02
    3.456180000000D+05 4.000000000000D+00
20 22  6 23  1 59 44.0 5.091619677842D-04-3.183231456205D-12 0.000000000000D+00
    2.000000000000D+01 2.281250000000D+00 5.043781522317D-09 1.370946959249D+00
   -1.005828380585D-07 4.758713184856D-03 7.798895239830D-06 5.153600669861D+03
    3.527840000000D+05 3.539025783539D-08 2.993418614301D+00 2.607703208923D-08
    9.438901214751D-01 2.208750000000D+02-3.119553500142D+00-8.300702900451D-09
    4.121600252623D-10 1.000000000000D+00 2.215000000000D+03 0.000000000000D+00
    2.000000000000D+00 0.000000000000D+00-8.381903171539D-09 2.000000000000D+01
    3.456180000000D+05 4.000000000000D+00
29 22  6 23  2  0  0.0-5.266964435577D-04-3.751665644813D-12 0.000000000000D+00
    8.900000000000D+01-3.050000000000D+01 4.035882396416D-09 2.572611009998D+00
   -1.514330506325D-06 2.235590014607D-03 4.498288035393D-06 5.153687318802D+03
    3.528000000000D+05-5.774199962616D-08 1.132284956030D+00-3.911554813385D-08
    9.804709073831D-01 3.044062500000D+02 2.317418541578D+00-7.958902948826D-09
   -1.985797002130D-10 1.000000000000D+00 2.215000000000D+03 0.000000000000D+00
    2.800000000000D+00 0.000000000000D+00-1.024454832077D-08 8.900000000000D+01
    3.456180000000D+05 4.000000000000D+00
 5 22  6 23  2  0  0.0-8.651660755277D-05-1.364242052659D-12 0.000000000000D+00
    7.500000000000D+01-6.562500000000D-01 4.678052002500D-09 2.928130915240D+00
   -1.415610313416D-07 6.063440814614D-03 7.720664143562D-06 5.153741794586D+03
    3.528000000000D+05-1.862645149231D-09 3.109739378156D+00-1.359730958939D-07
    9.615677090176D-01 2.336875000000D+02 1.044256221760D+00-7.978903781941D-09
    4.478757986819D-10 1.000000000000D+00 2.215000000000D+03 0.000000000000D+00
    2.000000000000D+00 0.000000000000D+00-1.117587089539D-08 7.500000000000D+01
    3.456180000000D+05 4.000000000000D+00
18 22  6 23  2  0  0.0 1.343782059848D-04-1.091393642128D-11 0.000000000000D+00
    1.810000000000D+02-4.459375000000D+01 4.019095982909D-09 6.620397907404D-01
   -2.264976501465D-06 2.449251012877D-03 8.812174201012D-06 5.153735479355D+03
    3.528000000000D+05 7.264316082001D-08 2.124209370898D+00 2.607703208923D-08
    9.717519141677D-01 2.168750000000D+02 3.005082442592D+00-7.862470360593D-09
    1.557207721095D-10 1.000000000000D+00 2.215000000000D+03 0.000000000000D+00
    2.000000000000D+00 0.000000000000D+00-8.381903171539D-09 1.810000000000D+02
    3.456180000000D+05 4.000000000000D+00
 6 22  6 23  2  0  0.0 3.548623062670D-04 1.580247044330D-11 0.000000000000D+00
    8.000000000000D+00-4.721875000000D+01 3.656223724965D-09 5.200930821130D-01
   -2.304092049599D-06 2.476236666553D-03 9.546056389809D-06 5.153751619339D+03
    3.528000000000D+05-9.313225746155D-09 2.109997480173D+00-4.656612873077D-08
    9.872499117673D-01 2.044062500000D+02-8.544841639410D-01-7.736393680421D-09
    1.689356082747D-10 1.000000000000D+00 2.215000000000D+03 0.000000000000D+00
    2.000000000000D+00 0.000000000000D+00 3.725290298462D-09 8.000000000000D+00
    3.456180000000D+05 4.000000000000D+00
31 22  6 23  2  0  0.0-1.828889362514D-04-1.477928890381D-12 0.000000000000D+00
    7.500000000000D+01 2.312500000000D+01 4.586976780280D-09-8.507888489648D-01
    1.190230250359D-06 1.043388457038D-02 9.872019290924D-06 5.153762800217D+03
    3.528000000000D+05 2.402812242508D-07-1.013509488784D+00 1.676380634308D-08
    9.547112855457D-01 1.871562500000D+02 3.973917571675D-01-8.015691028563D-09
   -2.703684047864D-10 1.000000000000D+00 2.215000000000D+03 0.000000000000D+00
    2.000000000000D+00 0.000000000000D+00-1.350417733192D-08 7.500000000000D+01
    3.465480000000D+05 4.000000000000D+00
23 22  6 23  2  0  0.0-2.945214509964D-05-1.932676241267D-12 0.000000000000D+00
    2.000000000000D+02 4.375000000000D-01 4.486615456971D-09-4.387743741767D-01
    8.009374141693D-08 2.269782708026D-03 7.390975952148D-06 5.153713550568D+03
    3.528000000000D+05-3.352761268616D-08 3.123583337670D+00 1.490116119385D-08
    9.694376743189D-01 2.404687500000D+02 2.992798749578D+00-8.042120700893D-09
    4.768055751518D-10 1.000000000000D+00 2.215000000000D+03 0.000000000000D+00
    2.000000000000D+00 0.000000000000D+00-8.381903171539D-09 4.560000000000D+02
    3.494160000000D+05 4.000000000000D+00
15 22  6 23  2  0  0.0-5.109049379826D-05 2.955857780762D-12 0.000000000000D+00
    4.400000000000D+01-3.428125000000D+01 5.753453940165D-09 1.528615576792D+00
   -1.881271600723D-06 1.414537895471D-02 6.219372153282D-06 5.153570333481D+03
    3.528000000000D+05-3.445893526077D-07-2.213620665157D+00-1.341104507446D-07
    9.303294472700D-01 2.490937500000D+02 1.097043456995D+00-8.712505767979D-09
   -6.214544575012D-11 1.000000000000D+00 2.215000000000D+03 0.000000000000D+00
    2.000000000000D+00 0.000000000000D+00-1.071020960808D-08 4.400000000000D+01
    3.494880000000D+05 4.000000000000D+00
26 22  6 23  2  0  0.0 2.140151336789D-04 2.273736754432D-12 0.000000000000D+00
    2.400000000000D+01 8.115625000000D+01 4.981993234301D-09-1.960411155862D+00
    4.265457391739D-06 6.948610534891D-03 6.044283509254D-06 5.153770751953D+03
    3.528000000000D+05-1.490116119385D-08-4.660325522407D-02-4.097819328308D-08
    9.375411096761D-01 2.522812500000D+02 3.881348562890D-01-8.301417215920D-09
    8.893227581483D-11 1.000000000000D+00 2.215000000000D+03 0.000000000000D+00
    2.000000000000D+00 0.000000000000D+00 6.984919309616D-09 2.400000000000D+01
    3.518580000000D+05 4.000000000000D+00
25 22  6 23  4  0  0.0 3.406931646168D-04 4.547473508865D-12 0.000000000000D+00
    5.300000000000D+01 7.900000000000D+01 4.821629411647D-09-2.210103122523D-01
    4.185363650322D-06 1.046189863700D-02 6.375834345818D-06 5.153657537460D+03
    3.600000000000D+05-6.519258022308D-08 2.678914604689D-03 9.499490261078D-08
    9.567288104980D-01 2.523750000000D+02 1.006333925344D+00-8.477138821144D-09
   -7.143154683922D-13 1.000000000000D+00 2.215000000000D+03 0.000000000000D+00
    2.000000000000D+00 0.000000000000D+00 5.587935447693D-09 5.300000000000D+01
    3.528180000000D+05 4.000000000000D+00
